OBJECT_NAME,OBJECT_ID,EPOCH,MEAN_MOTION,ECCENTRICITY,INCLINATION,RA_OF_ASC_NODE,ARG_OF_PERICENTER,MEAN_ANOMALY,EPHEMERIS_TYPE,CLASSIFICATION_TYPE,NORAD_CAT_ID,ELEMENT_SET_NO,REV_AT_EPOCH,BSTAR,MEAN_MOTION_DOT,MEAN_MOTION_DDOT
SL-16 R/B,1994-077B,2026-07-12T03:15:21.392064,14.15574887,.0004089,70.9825,90.6765,305.7671,54.3071,0,U,23405,999,63384,-.95767698E-4,-.235E-5,0
ARIANE 40+ R/B,1995-021B,2026-07-12T03:14:54.627936,14.39846545,.00078159,98.4401,262.8487,124.3604,267.0722,0,U,23561,999,63715,.5104853E-4,.117E-5,0
SL-16 R/B,1995-058B,2026-07-12T13:44:36.455424,14.15508072,.00146115,71.0211,278.0614,286.1730,73.7785,0,U,23705,999,58552,.30871153E-4,.13E-6,0
SL-16 R/B,1996-051B,2026-07-12T14:19:54.767424,14.12455469,.00176103,70.7648,270.8750,301.4158,58.5239,0,U,24298,999,53928,.10595573E-3,.147E-5,0
ORBVIEW 2 (SEASTAR),1997-037A,2026-07-12T11:02:30.235488,14.35566011,.00031422,98.8710,1.1824,66.3262,293.8252,0,U,24883,999,52637,.55102477E-4,.112E-5,0
SL-16 R/B,1998-043G,2026-07-12T11:32:41.573472,14.26072452,.00101788,98.8378,147.8598,19.0256,341.1301,0,U,25400,999,45677,.15440959E-4,-.9E-7,0
SL-16 R/B,1998-045B,2026-07-12T14:13:49.363680,14.16206189,.00083251,71.0115,278.9012,210.3352,149.7291,0,U,25407,999,44478,-.10510286E-3,-.256E-5,0
ISS (ZARYA),1998-067A,2026-07-12T09:52:44.546016,15.48989885,.00066981,51.6301,175.2558,286.7033,73.3220,0,U,25544,999,57566,.9492637E-4,.4782E-4,0
CZ-4B R/B,1999-025C,2026-07-12T13:09:03.580704,14.18287388,.00367815,98.6474,234.7466,347.4519,139.0707,0,U,25732,999,40586,.27271125E-4,.13E-6,0
OKEAN-O,1999-039A,2026-07-12T03:38:41.841888,14.80495232,.00009325,97.9303,251.6616,81.5197,278.6121,0,U,25860,999,45280,.43505699E-4,.281E-5,0
SL-16 R/B,1999-039B,2026-07-12T03:36:41.906592,14.81868951,.00140915,97.9824,251.9407,208.7043,151.3395,0,U,25861,999,45529,.38747357E-4,.253E-5,0
DELTA 2 R/B,1999-041E,2026-07-12T07:16:00.649056,14.12076723,.05013176,51.7614,163.4543,356.2165,3.5037,0,U,25876,999,38063,.25224857E-3,.1331E-4,0
HELIOS 1B,1999-064A,2026-07-12T04:38:13.358688,14.88070775,.00020856,98.1589,99.0547,57.7320,302.4097,0,U,25977,999,70377,.82671901E-4,.701E-5,0
TERRA,1999-068A,2026-07-12T13:54:42.611904,14.61122436,.00033047,97.9443,242.1174,127.8609,29.8806,0,U,25994,999,41331,.49139107E-4,.197E-5,0
SL-16 R/B,2000-006B,2026-07-12T10:17:23.225856,14.15838664,.00170868,71.0002,195.5500,343.8109,16.2466,0,U,26070,999,36621,-.91725436E-4,-.229E-5,0
TITAN 4B R/B,2000-047B,2026-07-12T14:58:31.394208,15.10325602,.00458878,67.9872,48.9667,261.3014,98.2936,0,U,26474,999,41177,.844833E-4,.1279E-4,0
ENVISAT,2002-009A,2026-07-12T11:58:13.173312,14.39070395,.0001343,98.3846,144.2545,83.8429,30.7851,0,U,27386,999,27712,.19720625E-4,.18E-6,0
IDEFIX & ARIANE 42P R/B,2002-021B,2026-07-12T10:32:52.664352,14.31093004,.00117159,98.5942,130.6494,174.4438,185.6877,0,U,27422,999,26186,.4993703E-4,.88E-6,0
AQUA,2002-022A,2026-07-12T14:14:14.712576,14.62194763,.0000855,98.4293,163.3866,108.2245,26.9730,0,U,27424,999,28698,.83913102E-4,.373E-5,0
CZ-4B R/B,2002-024C,2026-07-12T14:00:59.508576,14.14567914,.00505966,98.8688,246.2376,29.3463,140.9401,0,U,27432,999,24689,.2553377E-4,.5E-7,0
MIDORI II (ADEOS-II),2002-056A,2026-07-12T11:29:04.274016,14.29362295,.00015921,98.7893,152.9554,43.1202,317.0104,0,U,27597,999,22812,.58721574E-4,.104E-5,0
H-2A R/B,2002-056E,2026-07-12T11:49:15.709152,14.33832971,.00707403,98.3327,149.2465,148.9041,322.1677,0,U,27601,999,23199,.54115285E-4,.113E-5,0
CZ-4B R/B,2003-049C,2026-07-12T12:52:11.339040,14.55114993,.00474705,98.6908,193.3931,209.4665,150.3854,0,U,28059,999,20475,.4289737E-4,.136E-5,0
CZ-2C R/B,2004-012C,2026-07-12T03:37:32.400480,15.84548107,.00115805,97.7081,271.8195,200.8727,159.2071,0,U,28222,999,22384,.44259587E-3,.102383E-2,0
SL-16 R/B,2004-021B,2026-07-12T13:07:30.350784,14.14616041,.00064051,71.0026,330.4658,227.2701,132.7883,0,U,28353,999,14049,.56353166E-4,.61E-6,0
CZ-4B R/B,2004-035C,2026-07-12T13:27:11.099232,15.30969035,.00290784,97.3361,226.3521,242.4975,117.3311,0,U,28415,999,19900,.14603222E-3,.4346E-4,0
CZ-2C R/B,2004-046B,2026-07-12T07:02:31.342848,14.27032494,.01399741,98.1921,100.5024,145.9266,215.1000,0,U,28480,999,12627,.30429806E-4,.42E-6,0
ARIANE 5 R/B,2004-049H,2026-07-12T10:58:32.921472,14.85477046,.00827551,98.2739,6.6900,307.2822,52.0867,0,U,28499,999,16431,.38649302E-4,.288E-5,0
CZ-2D R/B,2005-024B,2026-07-12T13:41:13.216704,15.72501753,.00019617,97.3474,214.3188,199.3263,160.7926,0,U,28738,999,15932,.33415122E-3,.44541E-3,0
ALOS (DAICHI),2006-002A,2026-07-12T11:29:11.131584,14.70098750,.00007927,98.1336,148.9696,92.6298,267.4998,0,U,28931,999,9181,.92982428E-4,.509E-5,0
