SL-16 R/B               
1 23405U 94077B   26193.13566426 -.00000235  00000+0 -95768-4 0  9995
2 23405  70.9825  90.6765 0004089 305.7671  54.3071 14.15574887633844
ARIANE 40+ R/B          
1 23561U 95021B   26193.13535449  .00000117  00000+0  51049-4 0  9990
2 23561  98.4401 262.8487 0007815 124.3604 267.0722 14.39846545637150
SL-16 R/B               
1 23705U 95058B   26193.57264416  .00000013  00000+0  30871-4 0  9996
2 23705  71.0211 278.0614 0014611 286.1730  73.7785 14.15508072585524
SL-16 R/B               
1 24298U 96051B   26193.59716166  .00000147  00000+0  10596-3 0  9993
2 24298  70.7648 270.8750 0017610 301.4158  58.5239 14.12455469539285
ORBVIEW 2 (SEASTAR)     
1 24883U 97037A   26193.46007217  .00000112  00000+0  55102-4 0  9999
2 24883  98.8710   1.1824 0003142  66.3262 293.8252 14.35566011526377
SL-16 R/B               
1 25400U 98043G   26193.48103673 -.00000009  00000+0  15441-4 0  9996
2 25400  98.8378 147.8598 0010178  19.0256 341.1301 14.26072452456773
SL-16 R/B               
1 25407U 98045B   26193.59293245 -.00000256  00000+0 -10510-3 0  9998
2 25407  71.0115 278.9012 0008325 210.3352 149.7291 14.16206189444786
ISS (ZARYA)             
1 25544U 98067A   26193.41162669  .00004782  00000+0  94926-4 0  9990
2 25544  51.6301 175.2558 0006698 286.7033  73.3220 15.48989885575660
CZ-4B R/B               
1 25732U 99025C   26193.54795811  .00000013  00000+0  27271-4 0  9991
2 25732  98.6474 234.7466 0036781 347.4519 139.0707 14.18287388405869
OKEAN-O                 
1 25860U 99039A   26193.15187317  .00000281  00000+0  43506-4 0  9997
2 25860  97.9303 251.6616 0000932  81.5197 278.6121 14.80495232452800
SL-16 R/B               
1 25861U 99039B   26193.15048503  .00000253  00000+0  38747-4 0  9991
2 25861  97.9824 251.9407 0014091 208.7043 151.3395 14.81868951455293
DELTA 2 R/B             
1 25876U 99041E   26193.30278529  .00001331  00000+0  25225-3 0  9994
2 25876  51.7614 163.4543 0501317 356.2165   3.5037 14.12076723380636
HELIOS 1B               
1 25977U 99064A   26193.19321017  .00000701  00000+0  82672-4 0  9999
2 25977  98.1589  99.0547 0002085  57.7320 302.4097 14.88070775703771
TERRA                   
1 25994U 99068A   26193.57965986  .00000197  00000+0  49139-4 0  9993
2 25994  97.9443 242.1174 0003304 127.8609  29.8806 14.61122436413316
SL-16 R/B               
1 26070U 00006B   26193.42874104 -.00000229  00000+0 -91725-4 0  9994
2 26070  71.0002 195.5500 0017086 343.8109  16.2466 14.15838664366211
TITAN 4B R/B            
1 26474U 00047B   26193.62397447  .00001279  00000+0  84483-4 0  9996
2 26474  67.9872  48.9667 0045887 261.3014  98.2936 15.10325602411775
ENVISAT                 
1 27386U 02009A   26193.49876358  .00000018  00000+0  19721-4 0  9990
2 27386  98.3846 144.2545 0001343  83.8429  30.7851 14.39070395277120
IDEFIX & ARIANE 42P R/B 
1 27422U 02021B   26193.43949843  .00000088  00000+0  49937-4 0  9998
2 27422  98.5942 130.6494 0011715 174.4438 185.6877 14.31093004261869
AQUA                    
1 27424U 02022A   26193.59322584  .00000373  00000+0  83913-4 0  9994
2 27424  98.4293 163.3866 0000855 108.2245  26.9730 14.62194763286982
CZ-4B R/B               
1 27432U 02024C   26193.58402209  .00000005  00000+0  25534-4 0  9994
2 27432  98.8688 246.2376 0050596  29.3463 140.9401 14.14567914246899
MIDORI II (ADEOS-II)    
1 27597U 02056A   26193.47852169  .00000104  00000+0  58722-4 0  9998
2 27597  98.7893 152.9554 0001592  43.1202 317.0104 14.29362295228120
H-2A R/B                
1 27601U 02056E   26193.49254293  .00000113  00000+0  54115-4 0  9992
2 27601  98.3327 149.2465 0070740 148.9041 322.1677 14.33832971231999
CZ-4B R/B               
1 28059U 03049C   26193.53624235  .00000136  00000+0  42897-4 0  9994
2 28059  98.6908 193.3931 0047470 209.4665 150.3854 14.55114993204755
CZ-2C R/B               
1 28222U 04012C   26193.15106945  .00102383  00000+0  44260-3 0  9990
2 28222  97.7081 271.8195 0011580 200.8727 159.2071 15.84548107223841
SL-16 R/B               
1 28353U 04021B   26193.54687906  .00000061  00000+0  56353-4 0  9996
2 28353  71.0026 330.4658 0006405 227.2701 132.7883 14.14616041140492
CZ-4B R/B               
1 28415U 04035C   26193.56054513  .00004346  00000+0  14603-3 0  9995
2 28415  97.3361 226.3521 0029078 242.4975 117.3311 15.30969035199008
CZ-2C R/B               
1 28480U 04046B   26193.29341832  .00000042  00000+0  30430-4 0  9998
2 28480  98.1921 100.5024 0139974 145.9266 215.1000 14.27032494126275
ARIANE 5 R/B            
1 28499U 04049H   26193.45732548  .00000288  00000+0  38649-4 0  9999
2 28499  98.2739   6.6900 0082755 307.2822  52.0867 14.85477046164313
CZ-2D R/B               
1 28738U 05024B   26193.57029186  .00044541  00000+0  33415-3 0  9994
2 28738  97.3474 214.3188 0001961 199.3263 160.7926 15.72501753159328
ALOS (DAICHI)           
1 28931U 06002A   26193.47860106  .00000509  00000+0  92982-4 0  9991
2 28931  98.1336 148.9696 0000792  92.6298 267.4998 14.70098750 91817
